[{"OBJECT_NAME":"STARLINK-3306","OBJECT_ID":"2021-125H","EPOCH":"2026-03-09T22:53:36.225600","MEAN_MOTION":15.0881478,"ECCENTRICITY":0.00013466,"INCLINATION":53.2161,"RA_OF_ASC_NODE":237.9248,"ARG_OF_PERICENTER":89.9292,"MEAN_ANOMALY":270.1855,"EPHEMERIS_TYPE":0,"CLASSIFICATION_TYPE":"U","NORAD_CAT_ID":50163,"ELEMENT_SET_NO":999,"REV_AT_EPOCH":23677,"BSTAR":0.00031594804,"MEAN_MOTION_DOT":4.741e-5,"MEAN_MOTION_DDOT":0},{"OBJECT_NAME":"COSMOS 2251 DEB","OBJECT_ID":"1993-036KZ","EPOCH":"2026-03-09T13:28:08.575968","MEAN_MOTION":15.07827872,"ECCENTRICITY":0.00279097,"INCLINATION":73.9949,"RA_OF_ASC_NODE":118.7357,"ARG_OF_PERICENTER":226.7607,"MEAN_ANOMALY":259.798,"EPHEMERIS_TYPE":0,"CLASSIFICATION_TYPE":"U","NORAD_CAT_ID":34128,"ELEMENT_SET_NO":999,"REV_AT_EPOCH":90472,"BSTAR":0.0021198383,"MEAN_MOTION_DOT":0.0003287,"MEAN_MOTION_DDOT":0}]
